{
  "norad_id": 58239,
  "name": "STARLINK-30847",
  "history": [
    {
      "epoch": "2026-03-28T17:15:56.814048",
      "apogee_km": 486.9376846945743,
      "perigee_km": 484.16804855959253,
      "latitude_deg": 37.65165017856735,
      "longitude_deg": 72.96312671992928,
      "semi_major_axis_km": 6863.689866627084,
      "eccentricity": 0.00020176,
      "inclination_deg": 43.0014,
      "raan_deg": 177.8648,
      "arg_perigee_deg": 262.1387,
      "mean_anomaly_deg": 97.9235,
      "mean_motion_rev_day": 15.26744219
    }
  ]
}